HIMAWARI-8              
1 40267U 14060A   23277.89549512 -.00000285  00000+0  00000+0 0  9998
2 40267   0.0123 189.6915 0001046  46.8059 239.8583  1.00270884 32877
